[{"OBJECT_NAME":"SAOCOM 1A","OBJECT_ID":"2018-076A","EPOCH":"2026-03-17T19:03:44.738784","MEAN_MOTION":14.82148752,"ECCENTRICITY":0.0001435,"INCLINATION":97.8894,"RA_OF_ASC_NODE":264.8524,"ARG_OF_PERICENTER":84.9938,"MEAN_ANOMALY":275.1439,"EPHEMERIS_TYPE":0,"CLASSIFICATION_TYPE":"U","NORAD_CAT_ID":43641,"ELEMENT_SET_NO":999,"REV_AT_EPOCH":40256,"BSTAR":4.5034e-5,"MEAN_MOTION_DOT":3.06e-6,"MEAN_MOTION_DDOT":0},{"OBJECT_NAME":"H-2A R/B","OBJECT_ID":"2018-084L","EPOCH":"2026-03-17T20:19:14.697696","MEAN_MOTION":15.41695729,"ECCENTRICITY":0.0024767,"INCLINATION":98.8722,"RA_OF_ASC_NODE":295.9805,"ARG_OF_PERICENTER":357.3531,"MEAN_ANOMALY":2.7576,"EPHEMERIS_TYPE":0,"CLASSIFICATION_TYPE":"U","NORAD_CAT_ID":43682,"ELEMENT_SET_NO":999,"REV_AT_EPOCH":40703,"BSTAR":0.0003379,"MEAN_MOTION_DOT":0.00014309,"MEAN_MOTION_DDOT":0},{"OBJECT_NAME":"SAOCOM 1B","OBJECT_ID":"2020-059A","EPOCH":"2026-03-14T01:04:39.385920","MEAN_MOTION":14.82151938,"ECCENTRICITY":0.00013837,"INCLINATION":97.8899,"RA_OF_ASC_NODE":260.2532,"ARG_OF_PERICENTER":84.3427,"MEAN_ANOMALY":275.7944,"EPHEMERIS_TYPE":0,"CLASSIFICATION_TYPE":"U","NORAD_CAT_ID":46265,"ELEMENT_SET_NO":999,"REV_AT_EPOCH":29939,"BSTAR":2.6755151e-5,"MEAN_MOTION_DOT":1.61e-6,"MEAN_MOTION_DDOT":0},{"OBJECT_NAME":"CSS (TIANHE)","OBJECT_ID":"2021-035A","EPOCH":"2026-03-17T14:03:02.689920","MEAN_MOTION":15.6109775,"ECCENTRICITY":0.0006145,"INCLINATION":41.4671,"RA_OF_ASC_NODE":160.1044,"ARG_OF_PERICENTER":321.5629,"MEAN_ANOMALY":38.4771,"EPHEMERIS_TYPE":0,"CLASSIFICATION_TYPE":"U","NORAD_CAT_ID":48274,"ELEMENT_SET_NO":999,"REV_AT_EPOCH":27884,"BSTAR":0.00024801,"MEAN_MOTION_DOT":0.0002125,"MEAN_MOTION_DDOT":0},{"OBJECT_NAME":"COSMOS 2550","OBJECT_ID":"2021-056A","EPOCH":"2026-03-17T03:31:02.671680","MEAN_MOTION":15.338788,"ECCENTRICITY":0.00082971,"INCLINATION":67.1448,"RA_OF_ASC_NODE":18.3252,"ARG_OF_PERICENTER":268.888,"MEAN_ANOMALY":91.1323,"EPHEMERIS_TYPE":0,"CLASSIFICATION_TYPE":"U","NORAD_CAT_ID":48865,"ELEMENT_SET_NO":999,"REV_AT_EPOCH":26460,"BSTAR":-3.79957e-7,"MEAN_MOTION_DOT":-2.04e-6,"MEAN_MOTION_DDOT":0},{"OBJECT_NAME":"CZ-2C R/B","OBJECT_ID":"2022-058K","EPOCH":"2026-03-16T21:42:38.464704","MEAN_MOTION":15.54771257,"ECCENTRICITY":0.00419661,"INCLINATION":50.1879,"RA_OF_ASC_NODE":281.1612,"ARG_OF_PERICENTER":231.5981,"MEAN_ANOMALY":128.1218,"EPHEMERIS_TYPE":0,"CLASSIFICATION_TYPE":"U","NORAD_CAT_ID":52794,"ELEMENT_SET_NO":999,"REV_AT_EPOCH":21125,"BSTAR":0.00044728262,"MEAN_MOTION_DOT":0.00031172,"MEAN_MOTION_DDOT":0},{"OBJECT_NAME":"CZ-2C R/B","OBJECT_ID":"2022-132E","EPOCH":"2026-03-17T18:18:17.021664","MEAN_MOTION":15.62599279,"ECCENTRICITY":0.0019825,"INCLINATION":97.2954,"RA_OF_ASC_NODE":80.329,"ARG_OF_PERICENTER":65.9222,"MEAN_ANOMALY":294.4107,"EPHEMERIS_TYPE":0,"CLASSIFICATION_TYPE":"U","NORAD_CAT_ID":54039,"ELEMENT_SET_NO":999,"REV_AT_EPOCH":19163,"BSTAR":0.00039166,"MEAN_MOTION_DOT":0.00035274,"MEAN_MOTION_DDOT":0},{"OBJECT_NAME":"GSLV R/B","OBJECT_ID":"2022-138AN","EPOCH":"2026-03-17T05:00:14.557248","MEAN_MOTION":14.96829228,"ECCENTRICITY":0.0023762,"INCLINATION":87.3883,"RA_OF_ASC_NODE":163.8462,"ARG_OF_PERICENTER":121.7083,"MEAN_ANOMALY":238.647,"EPHEMERIS_TYPE":0,"CLASSIFICATION_TYPE":"U","NORAD_CAT_ID":54149,"ELEMENT_SET_NO":999,"REV_AT_EPOCH":18505,"BSTAR":0.00016396691,"MEAN_MOTION_DOT":1.917e-5,"MEAN_MOTION_DDOT":0},{"OBJECT_NAME":"XRISM","OBJECT_ID":"2023-137A","EPOCH":"2026-03-17T10:23:10.312800","MEAN_MOTION":15.11587262,"ECCENTRICITY":0.00079207,"INCLINATION":31.0006,"RA_OF_ASC_NODE":233.5757,"ARG_OF_PERICENTER":116.8888,"MEAN_ANOMALY":243.2561,"EPHEMERIS_TYPE":0,"CLASSIFICATION_TYPE":"U","NORAD_CAT_ID":57800,"ELEMENT_SET_NO":999,"REV_AT_EPOCH":13896,"BSTAR":0.00022124458,"MEAN_MOTION_DOT":3.948e-5,"MEAN_MOTION_DDOT":0},{"OBJECT_NAME":"ACS3","OBJECT_ID":"2024-077B","EPOCH":"2026-03-17T20:22:58.027872","MEAN_MOTION":13.89976735,"ECCENTRICITY":0.0066949,"INCLINATION":97.2024,"RA_OF_ASC_NODE":16.1276,"ARG_OF_PERICENTER":57.3445,"MEAN_ANOMALY":303.4155,"EPHEMERIS_TYPE":0,"CLASSIFICATION_TYPE":"U","NORAD_CAT_ID":59588,"ELEMENT_SET_NO":999,"REV_AT_EPOCH":9533,"BSTAR":0.015619,"MEAN_MOTION_DOT":0.00019616,"MEAN_MOTION_DDOT":0},{"OBJECT_NAME":"SZ-21 MODULE","OBJECT_ID":"2025-246C","EPOCH":"2026-03-17T14:02:08.684736","MEAN_MOTION":15.6917503,"ECCENTRICITY":5.925e-5,"INCLINATION":41.4741,"RA_OF_ASC_NODE":154.7368,"ARG_OF_PERICENTER":302.6268,"MEAN_ANOMALY":57.4517,"EPHEMERIS_TYPE":0,"CLASSIFICATION_TYPE":"U","NORAD_CAT_ID":66515,"ELEMENT_SET_NO":999,"REV_AT_EPOCH":1931,"BSTAR":0.00024560925,"MEAN_MOTION_DOT":0.00029162,"MEAN_MOTION_DDOT":0}]
